{"type": "FeatureCollection", "features": [ {"type": "Feature", "properties": {"norad_id": 66945, "name": "STARLINK-36110", "group": "last-30-days", "lat": -21.29612022806629, "lon": -116.52764603858871, "alt_km": 286.37393431272085, "timestamp": "2025-12-13T13:34:33.866871+00:00", "meta": {"OBJECT_NAME": "STARLINK-36110", "OBJECT_ID": "2025-286W", "EPOCH": "2025-12-12T20:00:01.999872", "MEAN_MOTION": 15.98938301, "ECCENTRICITY": 6.914e-05, "INCLINATION": 53.1563, "RA_OF_ASC_NODE": 50.2418, "ARG_OF_PERICENTER": 57.2872, "MEAN_ANOMALY": 254.3256, "EPHEMERIS_TYPE": 0, "CLASSIFICATION_TYPE": "U", "NORAD_CAT_ID": 66945, "ELEMENT_SET_NO": 999, "REV_AT_EPOCH": 200, "BSTAR": -0.0027512027, "MEAN_MOTION_DOT": -0.01357255, "MEAN_MOTION_DDOT": 0.00057200198}, "tle": {"line1": "1 66945U 25286W   25346.83335648 -.01357255  57200-3 -27512-2 0  9999", "line2": "2 66945  53.1563  50.2418 0000691  57.2872 254.3256 15.98938301  2008"}}, "geometry": {"type": "Point", "coordinates": [-116.52764603858871, -21.29612022806629]}}, {"type": "Feature", "properties": {"norad_id": 66946, "name": "STARLINK-36115", "group": "last-30-days", "lat": -22.354418559167303, "lon": -115.56513712349553, "alt_km": 286.3027654681091, "timestamp": "2025-12-13T13:34:33.866880+00:00", "meta": {"OBJECT_NAME": "STARLINK-36115", "OBJECT_ID": "2025-286X", "EPOCH": "2025-12-12T20:00:01.999872", "MEAN_MOTION": 15.9902507, "ECCENTRICITY": 7.778e-05, "INCLINATION": 53.1563, "RA_OF_ASC_NODE": 50.2393, "ARG_OF_PERICENTER": 57.3989, "MEAN_ANOMALY": 255.3846, "EPHEMERIS_TYPE": 0, "CLASSIFICATION_TYPE": "U", "NORAD_CAT_ID": 66946, "ELEMENT_SET_NO": 999, "REV_AT_EPOCH": 200, "BSTAR": -0.0027515371, "MEAN_MOTION_DOT": -0.01364008, "MEAN_MOTION_DDOT": 0.00057774183}, "tle": {"line1": "1 66946U 25286X   25346.83335648 -.01364008  57774-3 -27515-2 0  9993", "line2": "2 66946  53.1563  50.2393 0000777  57.3989 255.3846 15.99025070  2003"}}, "geometry": {"type": "Point", "coordinates": [-115.56513712349553, -22.354418559167303]}}, {"type": "Feature", "properties": {"norad_id": 66947, "name": "STARLINK-36089", "group": "last-30-days", "lat": -24.595194724207147, "lon": -113.45825517027762, "alt_km": 285.9528396668875, "timestamp": "2025-12-13T13:34:33.866889+00:00", "meta": {"OBJECT_NAME": "STARLINK-36089", "OBJECT_ID": "2025-286Y", "EPOCH": "2025-12-12T20:00:01.999872", "MEAN_MOTION": 15.99208835, "ECCENTRICITY": 7.338e-05, "INCLINATION": 53.1563, "RA_OF_ASC_NODE": 50.2342, "ARG_OF_PERICENTER": 60.7033, "MEAN_ANOMALY": 254.5675, "EPHEMERIS_TYPE": 0, "CLASSIFICATION_TYPE": "U", "NORAD_CAT_ID": 66947, "ELEMENT_SET_NO": 999, "REV_AT_EPOCH": 200, "BSTAR": -0.0027313361, "MEAN_MOTION_DOT": -0.01368079, "MEAN_MOTION_DDOT": 0.00058203585}, "tle": {"line1": "1 66947U 25286Y   25346.83335648 -.01368079  58204-3 -27313-2 0  9991", "line2": "2 66947  53.1563  50.2342 0000733  60.7033 254.5675 15.99208835  2001"}}, "geometry": {"type": "Point", "coordinates": [-113.45825517027762, -24.595194724207147]}}, {"type": "Feature", "properties": {"norad_id": 66948, "name": "STARLINK-36116", "group": "last-30-days", "lat": -23.625948723779928, "lon": -114.38174769542381, "alt_km": 286.00563523809615, "timestamp": "2025-12-13T13:34:33.866898+00:00", "meta": {"OBJECT_NAME": "STARLINK-36116", "OBJECT_ID": "2025-286Z", "EPOCH": "2025-12-12T20:00:01.999872", "MEAN_MOTION": 15.99137708, "ECCENTRICITY": 5.892e-05, "INCLINATION": 53.1563, "RA_OF_ASC_NODE": 50.2364, "ARG_OF_PERICENTER": 62.8486, "MEAN_ANOMALY": 251.3383, "EPHEMERIS_TYPE": 0, "CLASSIFICATION_TYPE": "U", "NORAD_CAT_ID": 66948, "ELEMENT_SET_NO": 999, "REV_AT_EPOCH": 200, "BSTAR": -0.0027590011, "MEAN_MOTION_DOT": -0.01376263, "MEAN_MOTION_DDOT": 0.00058796259}, "tle": {"line1": "1 66948U 25286Z   25346.83335648 -.01376263  58796-3 -27590-2 0  9999", "line2": "2 66948  53.1563  50.2364 0000589  62.8486 251.3383 15.99137708  2001"}}, "geometry": {"type": "Point", "coordinates": [-114.38174769542381, -23.625948723779928]}}, {"type": "Feature", "properties": {"norad_id": 66949, "name": "STARLINK-36096", "group": "last-30-days", "lat": -25.57876570964146, "lon": -112.50064596897003, "alt_km": 285.96370297120666, "timestamp": "2025-12-13T13:34:33.866907+00:00", "meta": {"OBJECT_NAME": "STARLINK-36096", "OBJECT_ID": "2025-286AA", "EPOCH": "2025-12-12T20:00:01.999872", "MEAN_MOTION": 15.99293893, "ECCENTRICITY": 9.657e-05, "INCLINATION": 53.1563, "RA_OF_ASC_NODE": 50.2319, "ARG_OF_PERICENTER": 60.3039, "MEAN_ANOMALY": 256.067, "EPHEMERIS_TYPE": 0, "CLASSIFICATION_TYPE": "U", "NORAD_CAT_ID": 66949, "ELEMENT_SET_NO": 999, "REV_AT_EPOCH": 200, "BSTAR": -0.002731031, "MEAN_MOTION_DOT": -0.01374481, "MEAN_MOTION_DDOT": 0.00058755378}, "tle": {"line1": "1 66949U 25286AA  25346.83335648 -.01374481  58755-3 -27310-2 0  9995", "line2": "2 66949  53.1563  50.2319 0000965  60.3039 256.0670 15.99293893  2006"}}, "geometry": {"type": "Point", "coordinates": [-112.50064596897003, -25.57876570964146]}}, {"type": "Feature", "properties": {"norad_id": 66950, "name": "STARLINK-36111", "group": "last-30-days", "lat": -27.601570021285653, "lon": -110.45929697117174, "alt_km": 285.5309421440934, "timestamp": "2025-12-13T13:34:33.866918+00:00", "meta": {"OBJECT_NAME": "STARLINK-36111", "OBJECT_ID": "2025-286AB", "EPOCH": "2025-12-12T20:00:01.999872", "MEAN_MOTION": 15.99465488, "ECCENTRICITY": 6.796e-05, "INCLINATION": 53.1564, "RA_OF_ASC_NODE": 50.2271, "ARG_OF_PERICENTER": 61.6759, "MEAN_ANOMALY": 257.0074, "EPHEMERIS_TYPE": 0, "CLASSIFICATION_TYPE": "U", "NORAD_CAT_ID": 66950, "ELEMENT_SET_NO": 999, "REV_AT_EPOCH": 200, "BSTAR": -0.002740645, "MEAN_MOTION_DOT": -0.01392538, "MEAN_MOTION_DDOT": 0.00060284103}, "tle": {"line1": "1 66950U 25286AB  25346.83335648 -.01392538  60284-3 -27406-2 0  9996", "line2": "2 66950  53.1564  50.2271 0000679  61.6759 257.0074 15.99465488  2001"}}, "geometry": {"type": "Point", "coordinates": [-110.45929697117174, -27.601570021285653]}}, {"type": "Feature", "properties": {"norad_id": 66951, "name": "STARLINK-35999", "group": "last-30-days", "lat": -28.676666592062055, "lon": -109.33057245500513, "alt_km": 285.36102383782054, "timestamp": "2025-12-13T13:34:33.866927+00:00", "meta": {"OBJECT_NAME": "STARLINK-35999", "OBJECT_ID": "2025-286AC", "EPOCH": "2025-12-12T20:00:01.999872", "MEAN_MOTION": 15.99555461, "ECCENTRICITY": 7.106e-05, "INCLINATION": 53.1564, "RA_OF_ASC_NODE": 50.2245, "ARG_OF_PERICENTER": 57.2928, "MEAN_ANOMALY": 262.6056, "EPHEMERIS_TYPE": 0, "CLASSIFICATION_TYPE": "U", "NORAD_CAT_ID": 66951, "ELEMENT_SET_NO": 999, "REV_AT_EPOCH": 200, "BSTAR": -0.0027085738, "MEAN_MOTION_DOT": -0.0138342, "MEAN_MOTION_DDOT": 0.00059622439}, "tle": {"line1": "1 66951U 25286AC  25346.83335648 -.01383420  59622-3 -27086-2 0  9995", "line2": "2 66951  53.1564  50.2245 0000710  57.2928 262.6056 15.99555461  2001"}}, "geometry": {"type": "Point", "coordinates": [-109.33057245500513, -28.676666592062055]}}, {"type": "Feature", "properties": {"norad_id": 66952, "name": "STARLINK-36122", "group": "last-30-days", "lat": -26.612332632575306, "lon": -111.47032169073027, "alt_km": 285.6254419213519, "timestamp": "2025-12-13T13:34:33.866937+00:00", "meta": {"OBJECT_NAME": "STARLINK-36122", "OBJECT_ID": "2025-286AD", "EPOCH": "2025-12-12T20:00:01.999872", "MEAN_MOTION": 15.99378105, "ECCENTRICITY": 6.082e-05, "INCLINATION": 53.1564, "RA_OF_ASC_NODE": 50.2295, "ARG_OF_PERICENTER": 59.5826, "MEAN_ANOMALY": 257.973, "EPHEMERIS_TYPE": 0, "CLASSIFICATION_TYPE": "U", "NORAD_CAT_ID": 66952, "ELEMENT_SET_NO": 999, "REV_AT_EPOCH": 200, "BSTAR": -0.0027338453, "MEAN_MOTION_DOT": -0.01382335, "MEAN_MOTION_DDOT": 0.00059423736}, "tle": {"line1": "1 66952U 25286AD  25346.83335648 -.01382335  59424-3 -27338-2 0  9990", "line2": "2 66952  53.1564  50.2295 0000608  59.5826 257.9730 15.99378105  2009"}}, "geometry": {"type": "Point", "coordinates": [-111.47032169073027, -26.612332632575306]}}, {"type": "Feature", "properties": {"norad_id": 66953, "name": "HULIANWANG DIGUI-114", "group": "last-30-days", "lat": -61.15972571892975, "lon": -20.53235320175606, "alt_km": 1012.1751403019998, "timestamp": "2025-12-13T13:34:33.866948+00:00", "meta": {"OBJECT_NAME": "HULIANWANG DIGUI-114", "OBJECT_ID": "2025-287A", "EPOCH": "2025-12-11T05:43:48.442368", "MEAN_MOTION": 13.68688345, "ECCENTRICITY": 0.00085506, "INCLINATION": 86.4966, "RA_OF_ASC_NODE": 346.7027, "ARG_OF_PERICENTER": 209.4482, "MEAN_ANOMALY": 150.6197, "EPHEMERIS_TYPE": 0, "CLASSIFICATION_TYPE": "U", "NORAD_CAT_ID": 66953, "ELEMENT_SET_NO": 999, "REV_AT_EPOCH": 32, "BSTAR": 1.3583638e-05, "MEAN_MOTION_DOT": 2.8e-07, "MEAN_MOTION_DDOT": 0}, "tle": {"line1": "1 66953U 25287A   25345.23875512  .00000028  00000+0  13584-4 0  9999", "line2": "2 66953  86.4966 346.7027 0008550 209.4482 150.6197 13.68688345   322"}}, "geometry": {"type": "Point", "coordinates": [-20.53235320175606, -61.15972571892975]}}, {"type": "Feature", "properties": {"norad_id": 66954, "name": "HULIANWANG DIGUI-115", "group": "last-30-days", "lat": -59.511943344063205, "lon": -20.1136766278141, "alt_km": 1012.0690495669778, "timestamp": "2025-12-13T13:34:33.866957+00:00", "meta": {"OBJECT_NAME": "HULIANWANG DIGUI-115", "OBJECT_ID": "2025-287B", "EPOCH": "2025-12-12T22:04:40.066752", "MEAN_MOTION": 13.68791491, "ECCENTRICITY": 0.00085807, "INCLINATION": 86.4972, "RA_OF_ASC_NODE": 346.0929, "ARG_OF_PERICENTER": 203.4979, "MEAN_ANOMALY": 156.5789, "EPHEMERIS_TYPE": 0, "CLASSIFICATION_TYPE": "U", "NORAD_CAT_ID": 66954, "ELEMENT_SET_NO": 999, "REV_AT_EPOCH": 55, "BSTAR": 2.5045265e-05, "MEAN_MOTION_DOT": 3.8e-07, "MEAN_MOTION_DDOT": 0}, "tle": {"line1": "1 66954U 25287B   25346.91990818  .00000038  00000+0  25045-4 0  9999", "line2": "2 66954  86.4972 346.0929 0008580 203.4979 156.5789 13.68791491   556"}}, "geometry": {"type": "Point", "coordinates": [-20.1136766278141, -59.511943344063205]}}]}